NORAD_CAT_ID,OBJECT_NAME,OBJECT_TYPE,EPOCH,MEAN_MOTION,ECCENTRICITY,INCLINATION,RA_OF_ASC_NODE,ARG_OF_PERICENTER,MEAN_ANOMALY,BSTAR,MEAN_MOTION_DOT,MEAN_MOTION_DDOT,TLE_LINE0,TLE_LINE1,TLE_LINE2,SEMIMAJOR_AXIS,PERIOD,APOGEE,PERIGEE,DECAYED
55664.0,STARLINK-5480,PAYLOAD,2023-09-11 10:20:00,14.99303246,0.000348,69.998,299.6527,270.8943,89.1817,7.7152e-06,0.0,0.0,0 STARLINK-5480,1 55664U 23021AN  23254.43056193  .00000000  00000-0  77152-5 0  9998,2 55664  69.9980 299.6527 0003480 270.8943  89.1817 14.99303246 32636,6947.185,96.045,571.467,566.632,0.0
55664.0,STARLINK-5480,PAYLOAD,2023-09-11 13:32:08,14.99326668,0.0003158,69.998,299.3157,266.2234,93.8565,-0.00036338,-4.54e-05,0.0,0 STARLINK-5480,1 55664U 23021AN  23254.56398879 -.00004540  00000-0 -36338-3 0  9996,2 55664  69.9980 299.3157 0003158 266.2234  93.8565 14.99326668 32956,6947.112,96.043,571.171,566.784,0.0
55664.0,STARLINK-5480,PAYLOAD,2023-09-12 10:21:05,14.99300795,0.000319,69.9978,297.1252,263.7481,96.3315,2.4763e-05,2.09e-06,0.0,0 STARLINK-5480,1 55664U 23021AN  23255.43131452  .00000209  00000-0  24763-4 0  9991,2 55664  69.9978 297.1252 0003190 263.7481  96.3315 14.99300795 32782,6947.192,96.045,571.274,566.841,0.0
55664.0,STARLINK-5480,PAYLOAD,2023-09-12 13:33:14,14.99302896,0.0003312,69.9978,296.7883,267.9495,92.1286,4.3117e-05,4.34e-06,0.0,0 STARLINK-5480,1 55664U 23021AN  23255.56474640  .00000434  00000-0  43117-4 0  9998,2 55664  69.9978 296.7883 0003312 267.9495  92.1286 14.99302896 33106,6947.186,96.045,571.352,566.75,0.0
55664.0,STARLINK-5480,PAYLOAD,2023-09-12 19:57:31,14.99302408,0.0003475,69.9978,296.1144,270.8839,89.1922,2.6311e-05,2.28e-06,0.0,0 STARLINK-5480,1 55664U 23021AN  23255.83161397  .00000228  00000-0  26311-4 0  9998,2 55664  69.9978 296.1144 0003475 270.8839  89.1922 14.99302408 33141,6947.187,96.045,571.467,566.638,0.0
55664.0,STARLINK-5480,PAYLOAD,2023-09-13 10:22:09,14.9930778,0.0003453,69.9979,294.598,269.672,90.4044,0.0001307,1.506e-05,0.0,0 STARLINK-5480,1 55664U 23021AN  23256.43205827  .00001506  00000-0  13070-3 0  9999,2 55664  69.9979 294.5980 0003453 269.6720  90.4044 14.99307780 32937,6947.171,96.044,571.435,566.637,0.0
55664.0,STARLINK-5480,PAYLOAD,2023-09-13 11:58:14,14.99288655,0.0003293,69.9979,294.4295,268.7768,91.3014,0.00049618,5.981e-05,0.0,0 STARLINK-5480,1 55664U 23021AN  23256.49877969  .00005981  00000-0  49618-3 0  9995,2 55664  69.9979 294.4295 0003293 268.7768  91.3014 14.99288655 33240,6947.23,96.046,571.383,566.807,0.0
55664.0,STARLINK-5480,PAYLOAD,2023-09-13 21:34:41,14.99287714,0.0003454,69.9978,293.4186,268.1019,91.9745,-0.00015238,-1.957e-05,0.0,0 STARLINK-5480,1 55664U 23021AN  23256.89909490 -.00001957  00000-0 -15238-3 0  9996,2 55664  69.9978 293.4186 0003454 268.1019  91.9745 14.99287714 33308,6947.233,96.046,571.497,566.698,0.0
55664.0,STARLINK-5480,PAYLOAD,2023-09-14 02:22:54,14.99286328,0.0003465,69.9978,292.9131,267.7125,92.3638,-0.0001075,-1.409e-05,0.0,0 STARLINK-5480,1 55664U 23021AN  23257.09924645 -.00001409  00000-0 -10750-3 0  9994,2 55664  69.9978 292.9131 0003465 267.7125  92.3638 14.99286328 33033,6947.237,96.046,571.509,566.695,0.0
55664.0,STARLINK-5480,PAYLOAD,2023-09-14 11:59:20,14.99289938,0.0003478,69.9979,291.9019,267.8307,92.2454,-6.0766e-05,-8.37e-06,0.0,0 STARLINK-5480,1 55664U 23021AN  23257.49954698 -.00000837  00000-0 -60766-4 0  9996,2 55664  69.9979 291.9019 0003478 267.8307  92.2454 14.99289938 33399,6947.226,96.045,571.507,566.675,0.0
55664.0,STARLINK-5480,PAYLOAD,2023-09-14 16:47:33,14.99292304,0.0003466,69.998,291.3966,267.7142,92.3621,-5.8005e-05,-8.03e-06,0.0,0 STARLINK-5480,1 55664U 23021AN  23257.69969706 -.00000803  00000-0 -58005-4 0  9990,2 55664  69.9980 291.3966 0003466 267.7142  92.3621 14.99292304 33128,6947.219,96.045,571.492,566.676,0.0
55664.0,STARLINK-5480,PAYLOAD,2023-09-14 19:59:42,14.99293031,0.0003487,69.9979,291.0596,267.528,92.548,-5.9145e-05,-8.17e-06,0.0,0 STARLINK-5480,1 55664U 23021AN  23257.83313064 -.00000817  00000-0 -59145-4 0  9997,2 55664  69.9979 291.0596 0003487 267.5280  92.5480 14.99293031 33444,6947.216,96.045,571.504,566.659,0.0
55664.0,STARLINK-5480,PAYLOAD,2023-09-15 10:24:21,14.99298681,0.0003458,69.998,289.5434,266.051,94.0254,1.7163e-05,1.16e-06,0.0,0 STARLINK-5480,1 55664U 23021AN  23258.43358000  .00000116  00000-0  17163-4 0  9997,2 55664  69.9980 289.5434 0003458 266.0510  94.0254 14.99298681 33236,6947.199,96.045,571.466,566.662,0.0
55664.0,STARLINK-5480,PAYLOAD,2023-09-15 12:00:25,14.99299866,0.0003481,69.9979,289.3748,266.5842,93.492,2.7406e-06,-6e-07,0.0,0 STARLINK-5480,1 55664U 23021AN  23258.50029642 -.00000060  00000-0  27406-5 0  9993,2 55664  69.9979 289.3748 0003481 266.5842  93.4920 14.99299866 33542,6947.195,96.045,571.479,566.642,0.0
55664.0,STARLINK-5480,PAYLOAD,2023-09-16 12:01:30,14.99304735,0.0003481,69.999,286.8481,265.467,94.6092,0.00039505,4.744e-05,0.0,0 STARLINK-5480,1 55664U 23021AN  23259.50105025  .00004744  00000-0  39505-3 0  9997,2 55664  69.9990 286.8481 0003481 265.4670  94.6092 14.99304735 33699,6947.18,96.045,571.464,566.627,0.0
55664.0,STARLINK-5480,PAYLOAD,2023-09-17 12:02:34,14.99320104,0.0003584,69.9993,284.3214,263.033,97.0422,0.00042524,5.116e-05,0.0,0 STARLINK-5480,1 55664U 23021AN  23260.50179079  .00005116  00000-0  42524-3 0  9998,2 55664  69.9993 284.3214 0003584 263.0330  97.0422 14.99320104 33849,6947.133,96.044,571.488,566.508,0.0
55664.0,STARLINK-5480,PAYLOAD,2023-09-18 02:27:13,14.99309936,0.0003464,70.0001,282.8046,266.4599,93.6164,0.00012681,1.458e-05,0.0,0 STARLINK-5480,1 55664U 23021AN  23261.10224280  .00001458  00000-0  12681-3 0  9996,2 55664  70.0001 282.8046 0003464 266.4599  93.6164 14.99309936 33631,6947.164,96.044,571.436,566.623,0.0
55664.0,STARLINK-5480,PAYLOAD,2023-09-18 10:27:36,14.99289801,0.0003065,69.9992,281.9623,256.0893,103.9926,0.00053409,6.445e-05,0.0,0 STARLINK-5480,1 55664U 23021AN  23261.43583373  .00006445  00000-0  53409-3 0  9997,2 55664  69.9992 281.9623 0003065 256.0893 103.9926 14.99289801 33681,6947.226,96.045,571.221,566.962,0.0
55664.0,STARLINK-5480,PAYLOAD,2023-09-18 12:03:41,14.99268413,0.0002879,69.9992,281.7938,262.4801,97.6032,0.00096058,0.00011669,0.0,0 STARLINK-5480,1 55664U 23021AN  23261.50255939  .00011669  00000-0  96058-3 0  9990,2 55664  69.9992 281.7938 0002879 262.4801  97.6032 14.99268413 33997,6947.292,96.047,571.158,567.157,0.0
55664.0,STARLINK-5480,PAYLOAD,2023-09-18 18:27:57,14.99300537,0.0003318,69.9996,281.1201,267.1005,92.9775,-1.9607e-05,-3.34e-06,0.0,0 STARLINK-5480,1 55664U 23021AN  23261.76941678 -.00000334  00000-0 -19607-4 0  9995,2 55664  69.9996 281.1201 0003318 267.1005  92.9775 14.99300537 34037,6947.193,96.045,571.363,566.753,0.0
55664.0,STARLINK-5480,PAYLOAD,2023-09-19 02:28:35,14.9910088,0.0003653,69.9994,280.2781,253.6609,106.4148,-0.002151,-0.00026181,0.0,0 STARLINK-5480,1 55664U 23021AN  23262.10319181 -.00026181  00000-0 -21510-2 0  9994,2 55664  69.9994 280.2781 0003653 253.6609 106.4148 14.99100880 33785,6947.81,96.058,572.213,567.137,0.0
55664.0,STARLINK-5480,PAYLOAD,2023-09-19 10:29:27,14.98773703,0.000336,69.999,279.4364,272.0181,88.0593,-0.0055026,-0.00065891,0.0,0 STARLINK-5480,1 55664U 23021AN  23262.43712862 -.00065891  00000-0 -55026-2 0  9993,2 55664  69.9990 279.4364 0003360 272.0181  88.0593 14.98773703 33837,6948.821,96.079,573.021,568.351,0.0
55664.0,STARLINK-5480,PAYLOAD,2023-09-19 18:30:01,14.98731471,0.0003384,69.9992,278.5953,267.3197,92.7575,-0.0055151,-0.00065967,0.0,0 STARLINK-5480,1 55664U 23021AN  23262.77084577 -.00065967  00000-0 -55151-2 0  9998,2 55664  69.9992 278.5953 0003384 267.3197  92.7575 14.98731471 33886,6948.952,96.081,573.168,568.465,0.0
55664.0,STARLINK-5480,PAYLOAD,2023-09-20 02:30:33,14.9875877,0.0003629,69.9995,277.7555,265.9344,94.1401,-0.0066786,-0.00079767,0.0,0 STARLINK-5480,1 55664U 23021AN  23263.10455139 -.00079767  00000-0 -66786-2 0  9991,2 55664  69.9995 277.7555 0003629 265.9344  94.1401 14.98758770 33939,6948.867,96.08,573.254,568.211,0.0
55664.0,STARLINK-5480,PAYLOAD,2023-09-20 08:55:03,14.98663375,0.0003238,69.9994,277.0824,262.6155,97.4637,-0.0052365,-0.00062559,0.0,0 STARLINK-5480,1 55664U 23021AN  23263.37156352 -.00062559  00000-0 -52365-2 0  9994,2 55664  69.9994 277.0824 0003238 262.6155  97.4637 14.98663375 33977,6949.162,96.086,573.277,568.777,0.0
55664.0,STARLINK-5480,PAYLOAD,2023-09-20 10:31:10,14.98657589,0.000333,69.9994,276.9137,270.3935,89.6843,-0.0051766,-0.00061842,0.0,0 STARLINK-5480,1 55664U 23021AN  23263.43831270 -.00061842  00000-0 -51766-2 0  9998,2 55664  69.9994 276.9137 0003330 270.3935  89.6843 14.98657589 34284,6949.18,96.086,573.359,568.731,0.0
55664.0,STARLINK-5480,PAYLOAD,2023-09-20 18:31:45,14.9861746,0.0003439,69.9995,276.0725,247.6808,112.3987,-0.0047636,-0.00056896,0.0,0 STARLINK-5480,1 55664U 23021AN  23263.77205968 -.00056896  00000-0 -47636-2 0  9998,2 55664  69.9995 276.0725 0003439 247.6808 112.3987 14.98617460 34035,6949.304,96.089,573.559,568.779,0.0
55664.0,STARLINK-5480,PAYLOAD,2023-09-21 02:32:24,14.9850082,0.0003361,69.9993,275.2309,256.0817,103.9968,-0.0028749,-0.00034381,0.0,0 STARLINK-5480,1 55664U 23021AN  23264.10583948 -.00034381  00000-0 -28749-2 0  9992,2 55664  69.9993 275.2309 0003361 256.0817 103.9968 14.98500820 34081,6949.665,96.096,573.865,569.194,0.0
55664.0,STARLINK-5480,PAYLOAD,2023-09-21 14:00:01,14.98346391,0.0003373,70.0009,274.0261,272.9687,141.9221,-0.0022358,-0.00026681,0.0,0 STARLINK-5480,1 55664U 23021AN  23264.58334491 -.00026681  00000-0 -22358-2 0  9995,2 55664  70.0009 274.0261 0003373 272.9687 141.9221 14.98346391 34154,6950.142,96.106,574.351,569.663,0.0
55664.0,STARLINK-5480,PAYLOAD,2023-09-22 00:00:02,14.98328192,0.0003367,70.0014,272.9756,266.556,235.2568,0.0025004,0.00029868,0.0,0 STARLINK-5480,1 55664U 23021AN  23265.00002315  .00029868  00000-0  25004-2 0  9999,2 55664  70.0014 272.9756 0003367 266.5560 235.2568 14.98328192  5808,6950.198,96.107,574.404,569.723,0.0
